start=new Date('2022-01-12T00:00:00.000Z').valueOf();
sats=[{"GP_ID":"193661253","INCLINATION":"53.0533","MEAN_ELEMENT_THEORY":"SGP4","ARG_OF_PERICENTER":"97.4435","REF_FRAME":"TEME","ECCENTRICITY":"0.00014040","COUNTRY_CODE":"US","MEAN_MOTION_DOT":"-0.00001790","TIME_SYSTEM":"UTC","PERIAPSIS":"546.265","OBJECT_NAME":"STARLINK-1541","SEMIMAJOR_AXIS":"6925.373","APOAPSIS":"548.210","MEAN_MOTION":"15.06392111","RA_OF_ASC_NODE":"92.1706","OBJECT_ID":"2020-055AB","OBJECT_TYPE":"PAYLOAD","FILE":"3269657","PERIOD":"95.593","EPHEMERIS_TYPE":"0","REV_AT_EPOCH":"8017","NORAD_CAT_ID":"46052","DECAY_DATE":null,"MEAN_MOTION_DDOT":"0.0000000000000","RCS_SIZE":"LARGE","TLE_LINE1":"1 46052U 20055AB  22011.46931533 -.00001790  00000-0 -10135-3 0  9991","BSTAR":"-0.00010135000000","TLE_LINE2":"2 46052  53.0533  92.1706 0001404  97.4435 262.6714 15.06392111 80177","EPOCH":"2022-01-11T11:15:48.844512","LAUNCH_DATE":"2020-08-07","ELEMENT_SET_NO":"999","CLASSIFICATION_TYPE":"U","MEAN_ANOMALY":"262.6714","CENTER_NAME":"EARTH","SITE":"AFETR"},{"PERIOD":"95.593","EPHEMERIS_TYPE":"0","NORAD_CAT_ID":"46053","REV_AT_EPOCH":"8020","MEAN_MOTION_DDOT":"0.0000000000000","DECAY_DATE":null,"RCS_SIZE":"LARGE","TLE_LINE1":"1 46053U 20055AC  22011.47300402  .00001038  00000-0  88619-4 0  9994","OBJECT_ID":"2020-055AC","OBJECT_TYPE":"PAYLOAD","FILE":"3269657","ELEMENT_SET_NO":"999","CLASSIFICATION_TYPE":"U","MEAN_ANOMALY":"266.2086","CENTER_NAME":"EARTH","SITE":"AFETR","BSTAR":"0.00008861900000","TLE_LINE2":"2 46053  53.0537  92.1494 0001359  93.9058 266.2086 15.06386850 80206","EPOCH":"2022-01-11T11:21:07.547328","LAUNCH_DATE":"2020-08-07","REF_FRAME":"TEME","ECCENTRICITY":"0.00013590","COUNTRY_CODE":"US","MEAN_MOTION_DOT":"0.00001038","GP_ID":"193660501","INCLINATION":"53.0537","MEAN_ELEMENT_THEORY":"SGP4","ARG_OF_PERICENTER":"93.9058","APOAPSIS":"548.195","RA_OF_ASC_NODE":"92.1494","MEAN_MOTION":"15.06386850","TIME_SYSTEM":"UTC","OBJECT_NAME":"STARLINK-1543","PERIAPSIS":"546.313","SEMIMAJOR_AXIS":"6925.389"},{"MEAN_MOTION_DOT":"-0.00000631","COUNTRY_CODE":"US","ECCENTRICITY":"0.00013520","REF_FRAME":"TEME","ARG_OF_PERICENTER":"93.6544","MEAN_ELEMENT_THEORY":"SGP4","INCLINATION":"53.0561","GP_ID":"193690555","MEAN_MOTION":"15.06395202","APOAPSIS":"548.165","RA_OF_ASC_NODE":"91.5239","SEMIMAJOR_AXIS":"6925.363","OBJECT_NAME":"STARLINK-1548","PERIAPSIS":"546.292","TIME_SYSTEM":"UTC","RCS_SIZE":"LARGE","TLE_LINE1":"1 46054U 20055AD  22011.61306685 -.00000631  00000-0 -23463-4 0  9996","DECAY_DATE":null,"MEAN_MOTION_DDOT":"0.0000000000000","NORAD_CAT_ID":"46054","REV_AT_EPOCH":"8022","EPHEMERIS_TYPE":"0","PERIOD":"95.592","FILE":"3269987","OBJECT_TYPE":"PAYLOAD","OBJECT_ID":"2020-055AD","SITE":"AFETR","CENTER_NAME":"EARTH","MEAN_ANOMALY":"266.4600","CLASSIFICATION_TYPE":"U","ELEMENT_SET_NO":"999","LAUNCH_DATE":"2020-08-07","EPOCH":"2022-01-11T14:42:48.975840","TLE_LINE2":"2 46054  53.0561  91.5239 0001352  93.6544 266.4600 15.06395202 80221","BSTAR":"-0.00002346300000"},{"SEMIMAJOR_AXIS":"6925.364","TIME_SYSTEM":"UTC","PERIAPSIS":"546.434","OBJECT_NAME":"STARLINK-1554","RA_OF_ASC_NODE":"92.4991","APOAPSIS":"548.024","MEAN_MOTION":"15.06394870","INCLINATION":"53.0556","ARG_OF_PERICENTER":"96.8810","MEAN_ELEMENT_THEORY":"SGP4","GP_ID":"193661503","COUNTRY_CODE":"US","MEAN_MOTION_DOT":"-0.00000197","REF_FRAME":"TEME","ECCENTRICITY":"0.00011480","EPOCH":"2022-01-11T09:34:57.929376","LAUNCH_DATE":"2020-08-07","TLE_LINE2":"2 46055  53.0556  92.4991 0001148  96.8810 263.2310 15.06394870 80194","BSTAR":"0.00000563480000","MEAN_ANOMALY":"263.2310","ELEMENT_SET_NO":"999","CLASSIFICATION_TYPE":"U","SITE":"AFETR","CENTER_NAME":"EARTH","OBJECT_TYPE":"PAYLOAD","OBJECT_ID":"2020-055AE","FILE":"3269657","RCS_SIZE":"LARGE","TLE_LINE1":"1 46055U 20055AE  22011.39928159 -.00000197  00000-0  56348-5 0  9993","MEAN_MOTION_DDOT":"0.0000000000000","DECAY_DATE":null,"PERIOD":"95.592","REV_AT_EPOCH":"8019","NORAD_CAT_ID":"46055","EPHEMERIS_TYPE":"0"},{"CENTER_NAME":"EARTH","SITE":"AFETR","MEAN_ANOMALY":"265.0260","CLASSIFICATION_TYPE":"U","ELEMENT_SET_NO":"999","TLE_LINE2":"2 46056  53.0551  91.4937 0001236  95.0870 265.0260 15.06394249 80233","BSTAR":"0.00002567800000","LAUNCH_DATE":"2020-08-07","EPOCH":"2022-01-11T14:53:25.672128","REV_AT_EPOCH":"8023","NORAD_CAT_ID":"46056","EPHEMERIS_TYPE":"0","PERIOD":"95.593","RCS_SIZE":"LARGE","TLE_LINE1":"1 46056U 20055AF  22011.62043602  .00000101  00000-0  25678-4 0  9996","MEAN_MOTION_DDOT":"0.0000000000000","DECAY_DATE":null,"FILE":"3269987","OBJECT_TYPE":"PAYLOAD","OBJECT_ID":"2020-055AF","RA_OF_ASC_NODE":"91.4937","APOAPSIS":"548.087","MEAN_MOTION":"15.06394249","PERIAPSIS":"546.375","OBJECT_NAME":"STARLINK-1561","TIME_SYSTEM":"UTC","SEMIMAJOR_AXIS":"6925.366","ECCENTRICITY":"0.00012360","REF_FRAME":"TEME","MEAN_MOTION_DOT":"0.00000101","COUNTRY_CODE":"US","GP_ID":"193691556","ARG_OF_PERICENTER":"95.0870","MEAN_ELEMENT_THEORY":"SGP4","INCLINATION":"53.0551"},{"MEAN_ELEMENT_THEORY":"SGP4","ARG_OF_PERICENTER":"91.7269","INCLINATION":"53.0552","GP_ID":"193691800","MEAN_MOTION_DOT":"-0.00001686","COUNTRY_CODE":"US","ECCENTRICITY":"0.00012470","REF_FRAME":"TEME","SEMIMAJOR_AXIS":"6925.358","PERIAPSIS":"546.360","OBJECT_NAME":"STARLINK-1564","TIME_SYSTEM":"UTC","APOAPSIS":"548.087","MEAN_MOTION":"15.06396763","RA_OF_ASC_NODE":"91.7341","FILE":"3269987","OBJECT_ID":"2020-055AH","OBJECT_TYPE":"PAYLOAD","DECAY_DATE":null,"MEAN_MOTION_DDOT":"0.0000000000000","RCS_SIZE":"LARGE","TLE_LINE1":"1 46058U 20055AH  22011.56514953 -.00001686  00000-0 -94303-4 0  9995","EPHEMERIS_TYPE":"0","REV_AT_EPOCH":"8021","NORAD_CAT_ID":"46058","PERIOD":"95.592","LAUNCH_DATE":"2020-08-07","EPOCH":"2022-01-11T13:33:48.919392","BSTAR":"-0.00009430300000","TLE_LINE2":"2 46058  53.0552  91.7341 0001247  91.7269 268.3863 15.06396763 80211","SITE":"AFETR","CENTER_NAME":"EARTH","ELEMENT_SET_NO":"999","CLASSIFICATION_TYPE":"U","MEAN_ANOMALY":"268.3863"},{"APOAPSIS":"548.082","RA_OF_ASC_NODE":"91.4071","MEAN_MOTION":"15.06390876","TIME_SYSTEM":"UTC","PERIAPSIS":"546.401","OBJECT_NAME":"STARLINK-1570","SEMIMAJOR_AXIS":"6925.377","REF_FRAME":"TEME","ECCENTRICITY":"0.00012130","MEAN_MOTION_DOT":"-0.00001841","COUNTRY_CODE":"US","GP_ID":"193690056","INCLINATION":"53.0540","ARG_OF_PERICENTER":"95.8898","MEAN_ELEMENT_THEORY":"SGP4","MEAN_ANOMALY":"264.2229","CLASSIFICATION_TYPE":"U","ELEMENT_SET_NO":"999","CENTER_NAME":"EARTH","SITE":"AFETR","TLE_LINE2":"2 46059  53.0540  91.4071 0001213  95.8898 264.2229 15.06390876 80188","BSTAR":"-0.00010474000000","EPOCH":"2022-01-11T15:19:58.821600","LAUNCH_DATE":"2020-08-07","PERIOD":"95.593","NORAD_CAT_ID":"46059","REV_AT_EPOCH":"8018","EPHEMERIS_TYPE":"0","RCS_SIZE":"LARGE","TLE_LINE1":"1 46059U 20055AJ  22011.63887525 -.00001841  00000-0 -10474-3 0  9991","MEAN_MOTION_DDOT":"0.0000000000000","DECAY_DATE":null,"OBJECT_TYPE":"PAYLOAD","OBJECT_ID":"2020-055AJ","FILE":"3269987"},{"APOAPSIS":"548.121","RA_OF_ASC_NODE":"91.4291","MEAN_MOTION":"15.06397325","TIME_SYSTEM":"UTC","PERIAPSIS":"546.323","OBJECT_NAME":"STARLINK-1572","SEMIMAJOR_AXIS":"6925.357","REF_FRAME":"TEME","ECCENTRICITY":"0.00012980","COUNTRY_CODE":"US","MEAN_MOTION_DOT":"-0.00001399","GP_ID":"193690800","INCLINATION":"53.0560","MEAN_ELEMENT_THEORY":"SGP4","ARG_OF_PERICENTER":"93.2288","ELEMENT_SET_NO":"999","CLASSIFICATION_TYPE":"U","MEAN_ANOMALY":"266.8850","SITE":"AFETR","CENTER_NAME":"EARTH","BSTAR":"-0.00007507200000","TLE_LINE2":"2 46060  53.0560  91.4291 0001298  93.2288 266.8850 15.06397325 80199","EPOCH":"2022-01-11T15:14:39.490656","LAUNCH_DATE":"2020-08-07","PERIOD":"95.592","EPHEMERIS_TYPE":"0","REV_AT_EPOCH":"8019","NORAD_CAT_ID":"46060","DECAY_DATE":null,"MEAN_MOTION_DDOT":"0.0000000000000","TLE_LINE1":"1 46060U 20055AK  22011.63517929 -.00001399  00000-0 -75072-4 0  9995","RCS_SIZE":"LARGE","OBJECT_ID":"2020-055AK","OBJECT_TYPE":"PAYLOAD","FILE":"3269987"},{"PERIOD":"95.592","EPHEMERIS_TYPE":"0","REV_AT_EPOCH":"8020","NORAD_CAT_ID":"46061","DECAY_DATE":null,"MEAN_MOTION_DDOT":"0.0000000000000","RCS_SIZE":"LARGE","TLE_LINE1":"1 46061U 20055AL  22011.49513302  .00001764  00000-0  13725-3 0  9991","OBJECT_ID":"2020-055AL","OBJECT_TYPE":"PAYLOAD","FILE":"3269657","CLASSIFICATION_TYPE":"U","ELEMENT_SET_NO":"999","MEAN_ANOMALY":"264.7208","SITE":"AFETR","CENTER_NAME":"EARTH","BSTAR":"0.00013725000000","TLE_LINE2":"2 46061  53.0558  92.0472 0001136  95.3911 264.7208 15.06403975 80207","EPOCH":"2022-01-11T11:52:59.492928","LAUNCH_DATE":"2020-08-07","REF_FRAME":"TEME","ECCENTRICITY":"0.00011360","MEAN_MOTION_DOT":"0.00001764","COUNTRY_CODE":"US","GP_ID":"193661254","INCLINATION":"53.0558","MEAN_ELEMENT_THEORY":"SGP4","ARG_OF_PERICENTER":"95.3911","MEAN_MOTION":"15.06403975","APOAPSIS":"547.988","RA_OF_ASC_NODE":"92.0472","TIME_SYSTEM":"UTC","PERIAPSIS":"546.415","OBJECT_NAME":"STARLINK-1573","SEMIMAJOR_AXIS":"6925.336"},{"ELEMENT_SET_NO":"999","CLASSIFICATION_TYPE":"U","MEAN_ANOMALY":"273.9969","CENTER_NAME":"EARTH","SITE":"AFETR","EPOCH":"2022-01-11T11:05:11.813856","LAUNCH_DATE":"2020-08-07","BSTAR":"-0.00010008000000","TLE_LINE2":"2 46062  53.0550  92.2186 0001279  86.1166 273.9969 15.06392826 80165","MEAN_MOTION_DDOT":"0.0000000000000","DECAY_DATE":null,"RCS_SIZE":"LARGE","TLE_LINE1":"1 46062U 20055AM  22011.46194229 -.00001771  00000-0 -10008-3 0  9993","PERIOD":"95.593","EPHEMERIS_TYPE":"0","REV_AT_EPOCH":"8016","NORAD_CAT_ID":"46062","OBJECT_ID":"2020-055AM","OBJECT_TYPE":"PAYLOAD","FILE":"3269657","APOAPSIS":"548.121","MEAN_MOTION":"15.06392826","RA_OF_ASC_NODE":"92.2186","SEMIMAJOR_AXIS":"6925.371","TIME_SYSTEM":"UTC","OBJECT_NAME":"STARLINK-1574","PERIAPSIS":"546.350","MEAN_MOTION_DOT":"-0.00001771","COUNTRY_CODE":"US","REF_FRAME":"TEME","ECCENTRICITY":"0.00012790","INCLINATION":"53.0550","MEAN_ELEMENT_THEORY":"SGP4","ARG_OF_PERICENTER":"86.1166","GP_ID":"193660502"}];
